OBJECT_NAME,OBJECT_ID,EPOCH,MEAN_MOTION,ECCENTRICITY,INCLINATION,RA_OF_ASC_NODE,ARG_OF_PERICENTER,MEAN_ANOMALY,EPHEMERIS_TYPE,CLASSIFICATION_TYPE,NORAD_CAT_ID,ELEMENT_SET_NO,REV_AT_EPOCH,BSTAR,MEAN_MOTION_DOT,MEAN_MOTION_DDOT
STARLINK-34448,2025-123A,2026-06-18T17:35:58.758144,14.98336555,.00026382,70.0016,299.7045,271.7935,88.2922,0,U,64291,999,5797,.21199736E-3,.2438E-4,0
STARLINK-34362,2025-123B,2026-06-18T17:53:46.229280,14.98337073,.00034836,70.0020,299.7423,268.4119,91.6641,0,U,64292,999,5797,.30229064E-3,.3516E-4,0
STARLINK-34428,2025-123C,2026-06-18T18:41:49.400736,14.98335721,.00028552,70.0014,299.4582,269.9136,90.1696,0,U,64293,999,5798,.2293942E-3,.2646E-4,0
STARLINK-34388,2025-123D,2026-06-18T16:29:53.980512,14.98339447,.00032721,70.0022,299.9388,267.5247,92.5538,0,U,64294,999,5796,.25759079E-3,.2983E-4,0
STARLINK-34424,2025-123E,2026-06-18T18:17:48.844032,14.98337133,.00035657,70.0022,299.7921,263.4515,96.6238,0,U,64295,999,5797,.19615479E-3,.2249E-4,0
STARLINK-34443,2025-123F,2026-06-18T19:05:52.161504,14.98333686,.0002368,70.0009,299.5159,266.1133,93.9755,0,U,64296,999,5798,.10438208E-3,.1153E-4,0
STARLINK-34369,2025-123G,2026-06-18T17:48:00.768384,14.98321879,.00024961,70.0026,299.7269,278.8030,81.2846,0,U,64297,999,5675,-.29318074E-4,-.443E-5,0
STARLINK-34391,2025-123H,2026-06-18T18:23:47.322816,14.98337773,.0003029,70.0024,299.4137,266.3598,93.7214,0,U,64298,999,5676,.222188E-3,.256E-4,0
STARLINK-34378,2025-123J,2026-06-18T17:29:57.861024,14.98340745,.00032131,70.0009,299.6876,269.5958,90.4833,0,U,64299,999,5675,.30214645E-3,.3515E-4,0
STARLINK-34376,2025-123K,2026-06-18T16:29:39.529248,14.98340808,.00033312,70.0023,299.9428,266.1839,93.8939,0,U,64300,999,5674,.63293951E-4,.662E-5,0
STARLINK-34372,2025-123L,2026-06-18T17:41:45.009600,14.98338061,.00027917,70.0018,299.7149,268.1069,91.9771,0,U,64301,999,5675,.27834842E-3,.323E-4,0
STARLINK-34379,2025-123M,2026-06-18T14:18:00.119808,15.52541586,.0004027,69.9998,252.7170,282.6517,77.4220,0,U,64302,999,5791,.82266E-3,.50814E-3,0
STARLINK-34356,2025-123N,2026-06-18T18:29:47.854464,14.98339526,.00031969,70.0015,299.4273,268.5383,91.5410,0,U,64303,999,5676,.31221337E-3,.3635E-4,0
STARLINK-34360,2025-123P,2026-06-18T18:00:02.947104,14.98311261,.00032192,70.0019,299.7536,265.8319,94.2472,0,U,64304,999,5675,-.43534082E-3,-.5281E-4,0
STARLINK-34383,2025-123Q,2026-06-18T18:24:03.742272,14.98337326,.00032599,70.0023,299.8105,267.9263,92.1522,0,U,64305,999,5675,.26824218E-3,.311E-4,0
STARLINK-34355,2025-123R,2026-06-18T18:18:03.514752,14.98332348,.00035383,70.0020,299.7955,268.4413,91.6341,0,U,64306,999,5675,-.7680457E-4,-.1009E-4,0
STARLINK-34380,2025-123S,2026-06-18T18:12:03.074688,14.98311416,.00028463,70.0023,299.7850,272.0221,88.0613,0,U,64307,999,5675,-.47225475E-3,-.572E-4,0
STARLINK-34374,2025-123T,2026-06-18T17:54:00.779040,14.98336516,.00032894,70.0015,299.7376,285.4568,74.6228,0,U,64308,999,5675,.34817353E-3,.4065E-4,0
STARLINK-34370,2025-123U,2026-06-18T17:41:59.356320,14.98335852,.00032086,70.0014,299.7078,269.7791,90.3001,0,U,64309,999,5675,.22698021E-3,.2617E-4,0
STARLINK-34357,2025-123V,2026-06-18T18:11:48.312384,14.98336071,.00034191,70.0024,299.7887,269.1650,90.9117,0,U,64310,999,5675,.32490809E-3,.3787E-4,0
STARLINK-34368,2025-123W,2026-06-18T17:59:48.057792,14.98319986,.00023152,70.0017,299.7489,260.4197,99.6701,0,U,64311,999,5675,-.66988898E-4,-.892E-5,0
STARLINK-34384,2025-123X,2026-06-18T17:47:46.524480,14.98297339,.00030029,70.0019,299.7284,268.5337,91.5478,0,U,64312,999,5675,-.11583761E-2,-.13876E-3,0
STARLINK-34358,2025-123Y,2026-06-18T17:35:44.632608,14.98335447,.00025904,70.0019,299.6971,258.2141,101.8728,0,U,64313,999,5675,.18694228E-3,.2139E-4,0
STARLINK-34354,2025-123Z,2026-06-18T18:59:50.997408,14.98342620,.00033032,70.0011,299.4994,268.9179,91.1602,0,U,64314,999,5676,.46264105E-4,.459E-5,0
STARLINK-34387,2025-123AA,2026-06-18T18:47:49.563456,14.98343863,.00032093,70.0015,299.4706,269.6835,90.3956,0,U,64315,999,5676,.34417825E-3,.4018E-4,0
STARLINK-33590,2025-123AB,2026-06-18T19:00:05.492736,14.98344893,.00032979,70.0012,299.4926,270.7358,89.3423,0,U,64316,999,5676,.14638376E-3,.1655E-4,0
STARLINK-11736 [DTC],2025-124A,2026-06-18T14:41:48.508800,15.70892567,.00007429,43.0011,141.1837,275.0876,84.9907,0,U,64317,999,5870,.16789896E-2,.221312E-2,0
STARLINK-11673 [DTC],2025-124B,2026-06-18T23:20:33.534240,15.70946776,.00017241,43.0013,138.7096,235.4690,124.6016,0,U,64318,999,5876,.11442929E-2,.149725E-2,0
STARLINK-11671 [DTC],2025-124C,2026-06-18T07:49:41.075040,15.70848277,.0002049,43.0002,142.4570,247.4556,112.6095,0,U,64319,999,5866,.11944E-2,.155774E-2,0
STARLINK-11594 [DTC],2025-124D,2026-06-18T14:49:27.467328,15.70879476,.00006918,42.9990,141.2250,15.8896,344.1993,0,U,64320,999,5870,.14289348E-2,.187407E-2,0
