STARLINK-34448          
1 64291U 25123A   26169.73331896  .00002438  00000+0  21200-3 0  9993
2 64291  70.0016 299.7045 0002638 271.7935  88.2922 14.98336555 57975
STARLINK-34362          
1 64292U 25123B   26169.74567395  .00003516  00000+0  30229-3 0  9999
2 64292  70.0020 299.7423 0003483 268.4119  91.6641 14.98337073 57979
STARLINK-34428          
1 64293U 25123C   26169.77904399  .00002646  00000+0  22939-3 0  9994
2 64293  70.0014 299.4582 0002855 269.9136  90.1696 14.98335721 57986
STARLINK-34388          
1 64294U 25123D   26169.68743033  .00002983  00000+0  25759-3 0  9998
2 64294  70.0022 299.9388 0003272 267.5247  92.5538 14.98339447 57964
STARLINK-34424          
1 64295U 25123E   26169.76237088  .00002249  00000+0  19615-3 0  9995
2 64295  70.0022 299.7921 0003565 263.4515  96.6238 14.98337133 57977
STARLINK-34443          
1 64296U 25123F   26169.79574261  .00001153  00000+0  10438-3 0  9993
2 64296  70.0009 299.5159 0002368 266.1133  93.9755 14.98333686 57984
STARLINK-34369          
1 64297U 25123G   26169.74167556 -.00000443  00000+0 -29318-4 0  9995
2 64297  70.0026 299.7269 0002496 278.8030  81.2846 14.98321879 56752
STARLINK-34391          
1 64298U 25123H   26169.76651994  .00002560  00000+0  22219-3 0  9994
2 64298  70.0024 299.4137 0003029 266.3598  93.7214 14.98337773 56764
STARLINK-34378          
1 64299U 25123J   26169.72914191  .00003515  00000+0  30215-3 0  9998
2 64299  70.0009 299.6876 0003213 269.5958  90.4833 14.98340745 56753
STARLINK-34376          
1 64300U 25123K   26169.68726307  .00000662  00000+0  63294-4 0  9990
2 64300  70.0023 299.9428 0003331 266.1839  93.8939 14.98340808 56743
STARLINK-34372          
1 64301U 25123L   26169.73732650  .00003230  00000+0  27835-3 0  9999
2 64301  70.0018 299.7149 0002791 268.1069  91.9771 14.98338061 56754
STARLINK-34379          
1 64302U 25123M   26169.59583472  .00050814  00000+0  82266-3 0  9999
2 64302  69.9998 252.7170 0004027 282.6517  77.4220 15.52541586 57911
STARLINK-34356          
1 64303U 25123N   26169.77069276  .00003635  00000+0  31221-3 0  9995
2 64303  70.0015 299.4273 0003196 268.5383  91.5410 14.98339526 56765
STARLINK-34360          
1 64304U 25123P   26169.75003411 -.00005281  00000+0 -43534-3 0  9994
2 64304  70.0019 299.7536 0003219 265.8319  94.2472 14.98311261 56753
STARLINK-34383          
1 64305U 25123Q   26169.76670998  .00003110  00000+0  26824-3 0  9996
2 64305  70.0023 299.8105 0003259 267.9263  92.1522 14.98337326 56750
STARLINK-34355          
1 64306U 25123R   26169.76254068 -.00001009  00000+0 -76805-4 0  9995
2 64306  70.0020 299.7955 0003538 268.4413  91.6341 14.98332348 56755
STARLINK-34380          
1 64307U 25123S   26169.75836892 -.00005720  00000+0 -47225-3 0  9993
2 64307  70.0023 299.7850 0002846 272.0221  88.0613 14.98311416 56757
STARLINK-34374          
1 64308U 25123T   26169.74584235  .00004065  00000+0  34817-3 0  9996
2 64308  70.0015 299.7376 0003289 285.4568  74.6228 14.98336516 56757
STARLINK-34370          
1 64309U 25123U   26169.73749255  .00002617  00000+0  22698-3 0  9996
2 64309  70.0014 299.7078 0003208 269.7791  90.3001 14.98335852 56756
STARLINK-34357          
1 64310U 25123V   26169.75819806  .00003787  00000+0  32491-3 0  9991
2 64310  70.0024 299.7887 0003419 269.1650  90.9117 14.98336071 56757
STARLINK-34368          
1 64311U 25123W   26169.74986178 -.00000892  00000+0 -66989-4 0  9994
2 64311  70.0017 299.7489 0002315 260.4197  99.6701 14.98319986 56753
STARLINK-34384          
1 64312U 25123X   26169.74151070 -.00013876  00000+0 -11584-2 0  9995
2 64312  70.0019 299.7284 0003002 268.5337  91.5478 14.98297339 56757
STARLINK-34358          
1 64313U 25123Y   26169.73315547  .00002139  00000+0  18694-3 0  9994
2 64313  70.0019 299.6971 0002590 258.2141 101.8728 14.98335447 56756
STARLINK-34354          
1 64314U 25123Z   26169.79156247  .00000459  00000+0  46264-4 0  9999
2 64314  70.0011 299.4994 0003303 268.9179  91.1602 14.98342620 56768
STARLINK-34387          
1 64315U 25123AA  26169.78321254  .00004018  00000+0  34418-3 0  9993
2 64315  70.0015 299.4706 0003209 269.6835  90.3956 14.98343863 56769
STARLINK-33590          
1 64316U 25123AB  26169.79173024  .00001655  00000+0  14638-3 0  9991
2 64316  70.0012 299.4926 0003297 270.7358  89.3423 14.98344893 56762
STARLINK-11736 [DTC]    
1 64317U 25124A   26169.61236700  .00221312  00000+0  16790-2 0  9999
2 64317  43.0011 141.1837 0000742 275.0876  84.9907 15.70892567 58702
STARLINK-11673 [DTC]    
1 64318U 25124B   26169.97261035  .00149725  00000+0  11443-2 0  9995
2 64318  43.0013 138.7096 0001724 235.4690 124.6016 15.70946776 58760
STARLINK-11671 [DTC]    
1 64319U 25124C   26169.32616985  .00155774  00000+0  11944-2 0  9990
2 64319  43.0002 142.4570 0002049 247.4556 112.6095 15.70848277 58663
STARLINK-11594 [DTC]    
1 64320U 25124D   26169.61767902  .00187407  00000+0  14289-2 0  9993
2 64320  42.9990 141.2250 0000691  15.8896 344.1993 15.70879476 58705
